KUIPER-00053            
1 64513U 25134P   25205.93831534  .00034016  00000+0  94843-3 0  9998
2 64513  51.8752 178.9896 0002499 185.8647 174.2311 15.36446743  6086
KUIPER-00054            
1 64514U 25134Q   25205.35688138  .00017007  00000+0  48361-3 0  9990
2 64514  51.8747 181.8466 0002533 195.8293 164.2614 15.36252559  5932
KUIPER-00055            
1 64515U 25134R   25205.92929801  .00034230  00000+0  94030-3 0  9990
2 64515  51.8755 178.9345 0001218 110.9724 249.1393 15.36908774  6082
KUIPER-00056            
1 64516U 25134S   25205.16604941  .00029229  00000+0  82947-3 0  9998
2 64516  51.8722 182.8132 0003102 206.4509 153.6319 15.35971728  5962
KUIPER-00057            
1 64517U 25134T   25205.89856255  .00036173  00000+0  10518-2 0  9996
2 64517  51.8684 179.4603 0006091 213.7161 146.3438 15.35090522  6078
KUIPER-00058            
1 64518U 25134U   25205.62854887  .00022427  00000+0  64595-3 0  9999
2 64518  51.8709 180.6583 0004363 215.9057 144.1636 15.35654895  6037
KUIPER-00059            
1 64519U 25134V   25205.21570050  .00034885  00000+0  96137-3 0  9990
2 64519  51.8759 182.3986 0001518 155.7703 204.3355 15.36799376  5971
KUIPER-00060            
1 64520U 25134W   25205.35027756  .00036302  00000+0  10058-2 0  9990
2 64520  51.8759 181.8034 0001750 168.3808 191.7219 15.36613252  5982
